{
  "type": "FeatureCollection",
  "features": [
    {
      "type": "Feature",
      "properties": {
        "norad_id": 33805,
        "name": "COSMOS 2251 DEB",
        "group": "cosmos-2251-debris",
        "lat": -32.58223695392926,
        "lon": -80.37333800629004,
        "alt_km": 742.4494490715078,
        "timestamp": "2025-12-23T20:42:37.468630+00:00",
        "meta_object_name": "COSMOS 2251 DEB",
        "meta_object_id": "1993-036AW",
        "meta_epoch": "2025-12-22T20:09:50.222304",
        "meta_mean_motion": 14.57876564,
        "meta_eccentricity": 0.00599354,
        "meta_inclination": 74.0312,
        "meta_ra_of_asc_node": 292.1161,
        "meta_arg_of_pericenter": 118.1542,
        "meta_mean_anomaly": 242.5696,
        "meta_ephemeris_type": 0,
        "meta_classification_type": "U",
        "meta_norad_cat_id": 33805,
        "meta_element_set_no": 999,
        "meta_rev_at_epoch": 89374,
        "meta_bstar": 0.00020045113,
        "meta_mean_motion_dot": 9.11e-06,
        "meta_mean_motion_ddot": 0,
        "tle_line1": "1 33805U 93036AW  25356.84016461  .00000911  00000+0  20045-3 0  9995",
        "tle_line2": "2 33805  74.0312 292.1161 0059935 118.1542 242.5696 14.57876564893741"
      },
      "geometry": {
        "type": "Point",
        "coordinates": [
          -80.37333800629004,
          -32.58223695392926
        ]
      }
    },
    {
      "type": "Feature",
      "properties": {
        "norad_id": 33811,
        "name": "COSMOS 2251 DEB",
        "group": "cosmos-2251-debris",
        "lat": -58.71826193777311,
        "lon": -108.92782237009068,
        "alt_km": 546.0009053796994,
        "timestamp": "2025-12-23T20:42:37.468641+00:00",
        "meta_object_name": "COSMOS 2251 DEB",
        "meta_object_id": "1993-036BC",
        "meta_epoch": "2025-12-23T05:42:16.287264",
        "meta_mean_motion": 15.0556214,
        "meta_eccentricity": 0.00309496,
        "meta_inclination": 73.8382,
        "meta_ra_of_asc_node": 280.879,
        "meta_arg_of_pericenter": 359.5399,
        "meta_mean_anomaly": 150.5396,
        "meta_ephemeris_type": 0,
        "meta_classification_type": "U",
        "meta_norad_cat_id": 33811,
        "meta_element_set_no": 999,
        "meta_rev_at_epoch": 90176,
        "meta_bstar": 0.0011321525,
        "meta_mean_motion_dot": 0.00016483,
        "meta_mean_motion_ddot": 0,
        "tle_line1": "1 33811U 93036BC  25357.23768851  .00016483  00000+0  11322-2 0  9991",
        "tle_line2": "2 33811  73.8382 280.8790 0030949 359.5399 150.5396 15.05562140901762"
      },
      "geometry": {
        "type": "Point",
        "coordinates": [
          -108.92782237009068,
          -58.71826193777311
        ]
      }
    },
    {
      "type": "Feature",
      "properties": {
        "norad_id": 33815,
        "name": "COSMOS 2251 DEB",
        "group": "cosmos-2251-debris",
        "lat": -26.722366582703724,
        "lon": -18.497889085759077,
        "alt_km": 509.0525549065824,
        "timestamp": "2025-12-23T20:42:37.468652+00:00",
        "meta_object_name": "COSMOS 2251 DEB",
        "meta_object_id": "1993-036BG",
        "meta_epoch": "2025-12-22T20:38:53.560032",
        "meta_mean_motion": 15.20664876,
        "meta_eccentricity": 0.00025939,
        "meta_inclination": 73.9518,
        "meta_ra_of_asc_node": 155.2836,
        "meta_arg_of_pericenter": 323.9754,
        "meta_mean_anomaly": 157.0749,
        "meta_ephemeris_type": 0,
        "meta_classification_type": "U",
        "meta_norad_cat_id": 33815,
        "meta_element_set_no": 999,
        "meta_rev_at_epoch": 88524,
        "meta_bstar": 0.0069341072,
        "meta_mean_motion_dot": 0.00155613,
        "meta_mean_motion_ddot": 0,
        "tle_line1": "1 33815U 93036BG  25356.86034213  .00155613  00000+0  69341-2 0  9994",
        "tle_line2": "2 33815  73.9518 155.2836 0002593 323.9754 157.0749 15.20664876885242"
      },
      "geometry": {
        "type": "Point",
        "coordinates": [
          -18.497889085759077,
          -26.722366582703724
        ]
      }
    },
    {
      "type": "Feature",
      "properties": {
        "norad_id": 33816,
        "name": "COSMOS 2251 DEB",
        "group": "cosmos-2251-debris",
        "lat": -39.41546139251782,
        "lon": 72.8085271341716,
        "alt_km": 1106.6343791848967,
        "timestamp": "2025-12-23T20:42:37.468663+00:00",
        "meta_object_name": "COSMOS 2251 DEB",
        "meta_object_id": "1993-036BH",
        "meta_epoch": "2025-12-23T05:16:37.576704",
        "meta_mean_motion": 13.81794576,
        "meta_eccentricity": 0.02642006,
        "meta_inclination": 73.8952,
        "meta_ra_of_asc_node": 87.6335,
        "meta_arg_of_pericenter": 98.4905,
        "meta_mean_anomaly": 264.6253,
        "meta_ephemeris_type": 0,
        "meta_classification_type": "U",
        "meta_norad_cat_id": 33816,
        "meta_element_set_no": 999,
        "meta_rev_at_epoch": 84818,
        "meta_bstar": 0.00033436169,
        "meta_mean_motion_dot": 4.45e-06,
        "meta_mean_motion_ddot": 0,
        "tle_line1": "1 33816U 93036BH  25357.21987936  .00000445  00000+0  33436-3 0  9993",
        "tle_line2": "2 33816  73.8952  87.6335 0264200  98.4905 264.6253 13.81794576848186"
      },
      "geometry": {
        "type": "Point",
        "coordinates": [
          72.8085271341716,
          -39.41546139251782
        ]
      }
    },
    {
      "type": "Feature",
      "properties": {
        "norad_id": 33818,
        "name": "COSMOS 2251 DEB",
        "group": "cosmos-2251-debris",
        "lat": -13.211383490488005,
        "lon": -32.91983494112171,
        "alt_km": 523.3709699134897,
        "timestamp": "2025-12-23T20:42:37.468674+00:00",
        "meta_object_name": "COSMOS 2251 DEB",
        "meta_object_id": "1993-036BK",
        "meta_epoch": "2025-12-23T02:55:38.153568",
        "meta_mean_motion": 15.13308184,
        "meta_eccentricity": 0.00246645,
        "meta_inclination": 74.0785,
        "meta_ra_of_asc_node": 144.7703,
        "meta_arg_of_pericenter": 128.7203,
        "meta_mean_anomaly": 349.5955,
        "meta_ephemeris_type": 0,
        "meta_classification_type": "U",
        "meta_norad_cat_id": 33818,
        "meta_element_set_no": 999,
        "meta_rev_at_epoch": 90019,
        "meta_bstar": 0.002692601,
        "meta_mean_motion_dot": 0.00048599,
        "meta_mean_motion_ddot": 0,
        "tle_line1": "1 33818U 93036BK  25357.12196937  .00048599  00000+0  26926-2 0  9995",
        "tle_line2": "2 33818  74.0785 144.7703 0024664 128.7203 349.5955 15.13308184900190"
      },
      "geometry": {
        "type": "Point",
        "coordinates": [
          -32.91983494112171,
          -13.211383490488005
        ]
      }
    },
    {
      "type": "Feature",
      "properties": {
        "norad_id": 33819,
        "name": "COSMOS 2251 DEB",
        "group": "cosmos-2251-debris",
        "lat": -30.397378714711394,
        "lon": -179.85053502373475,
        "alt_km": 777.3919046788878,
        "timestamp": "2025-12-23T20:42:37.468684+00:00",
        "meta_object_name": "COSMOS 2251 DEB",
        "meta_object_id": "1993-036BL",
        "meta_epoch": "2025-12-23T06:20:16.154304",
        "meta_mean_motion": 14.32255513,
        "meta_eccentricity": 0.00894917,
        "meta_inclination": 74.1774,
        "meta_ra_of_asc_node": 190.8086,
        "meta_arg_of_pericenter": 48.9541,
        "meta_mean_anomaly": 73.8897,
        "meta_ephemeris_type": 0,
        "meta_classification_type": "U",
        "meta_norad_cat_id": 33819,
        "meta_element_set_no": 999,
        "meta_rev_at_epoch": 87646,
        "meta_bstar": 0.00047861641,
        "meta_mean_motion_dot": 1.325e-05,
        "meta_mean_motion_ddot": 0,
        "tle_line1": "1 33819U 93036BL  25357.26407586  .00001325  00000+0  47862-3 0  9995",
        "tle_line2": "2 33819  74.1774 190.8086 0089491  48.9541  73.8897 14.32255513876464"
      },
      "geometry": {
        "type": "Point",
        "coordinates": [
          -179.85053502373475,
          -30.397378714711394
        ]
      }
    },
    {
      "type": "Feature",
      "properties": {
        "norad_id": 33821,
        "name": "COSMOS 2251 DEB",
        "group": "cosmos-2251-debris",
        "lat": 34.444373412173775,
        "lon": -72.01666640992619,
        "alt_km": 451.28972967920345,
        "timestamp": "2025-12-23T20:42:37.468695+00:00",
        "meta_object_name": "COSMOS 2251 DEB",
        "meta_object_id": "1993-036BN",
        "meta_epoch": "2025-12-23T07:29:43.605600",
        "meta_mean_motion": 15.25946544,
        "meta_eccentricity": 0.00497461,
        "meta_inclination": 74.0302,
        "meta_ra_of_asc_node": 120.4752,
        "meta_arg_of_pericenter": 150.3427,
        "meta_mean_anomaly": 210.0612,
        "meta_ephemeris_type": 0,
        "meta_classification_type": "U",
        "meta_norad_cat_id": 33821,
        "meta_element_set_no": 999,
        "meta_rev_at_epoch": 75162,
        "meta_bstar": 0.0012476047,
        "meta_mean_motion_dot": 0.00033308,
        "meta_mean_motion_ddot": 0,
        "tle_line1": "1 33821U 93036BN  25357.31231025  .00033308  00000+0  12476-2 0  9995",
        "tle_line2": "2 33821  74.0302 120.4752 0049746 150.3427 210.0612 15.25946544751626"
      },
      "geometry": {
        "type": "Point",
        "coordinates": [
          -72.01666640992619,
          34.444373412173775
        ]
      }
    }
  ]
}